HST                     
1 20580U 90037B   26177.27036609  .00007290  00000+0  22994-3 0  9996
2 20580  28.4732  18.4928 0001404 251.2839 108.7605 15.30848043789966
POLAR                   
1 23802U 96013A   26175.73936435  .00000126  00000+0  00000+0 0  9992
2 23802  79.8637 226.9636 6477909 208.8193  90.3423  1.29846085144951
SWAS                    
1 25560U 98071A   26177.22577322  .00002659  00000+0  17115-3 0  9995
2 25560  69.8944 204.2091 0008761 250.7395 109.2822 15.09666259498634
CXO                     
1 25867U 99040B   26179.95532601  .00000592  00000+0  00000+0 0  9990
2 25867  56.3077 116.3625 7815439 310.1470   0.3486  0.37796038 17366
XMM-NEWTON              
1 25989U 99066A   26179.31942051  .00000041  00000+0  00000+0 0  9996
2 25989  64.4273 282.8431 4670867  64.6865   0.1170  0.50127671 23061
TERRA                   
1 25994U 99068A   26177.26331108  .00000365  00000+0  83231-4 0  9992
2 25994  97.9452 226.4496 0002300 163.0982 261.6304 14.61109702410934
CLUSTER II-FM7 (SAMBA)  
1 26410U 00041A   26177.06472445  .00005882  00000+0  00000+0 0  9994
2 26410 149.9012  52.3742 9061812 269.6784 359.6419  0.44870397 20352
CLUSTER II-FM8 (TANGO)  
1 26464U 00045B   26175.19388581  .00005467  00000+0  00000+0 0  9995
2 26464 150.1279  53.1679 9064619 270.3052   2.6396  0.44418624 20342
ODIN                    
1 26702U 01007A   26177.10333021  .00238419  00000+0  13083-2 0  9994
2 26702  97.3805 218.6358 0006231 132.7995 227.3797 15.79099744390804
TIMED                   
1 26998U 01055B   26177.24100767  .00000920  00000+0  87061-4 0  9991
2 26998  74.0663 216.7886 0001577 323.4250  36.6827 14.95309899332174
CORIOLIS                
1 27640U 03001A   26177.28716874  .00000103  00000+0  69082-4 0  9991
2 27640  98.7126 184.0330 0013903 181.8600 178.2527 14.19947180215513
SORCE                   
1 27651U 03004A   26176.37477417  .00002184  00000+0  16687-3 0  9995
2 27651  39.9896 214.9630 0016291 112.2052 248.0472 15.03747558273132
MOST                    
1 27843U 03031D   26177.01087684  .00000070  00000+0  52350-4 0  9993
2 27843  98.7043 184.6137 0009029 221.9737 138.0749 14.21324205191960
SCISAT 1                
1 27858U 03036A   26177.27458522  .00000596  00000+0  80691-4 0  9997
2 27858  73.9289 153.2873 0008252 223.4643 136.5884 14.81456995232790
SWIFT                   
1 28485U 04047A   26176.96242316  .00058534  00000+0  47118-3 0  9995
2 28485  20.5514 117.1679 0001440  63.2059 296.8534 15.69134889188246
HINODE (SOLAR-B)        
1 29479U 06041A   26177.31501139  .00000692  00000+0  12724-3 0  9993
2 29479  98.0544 193.3330 0015967 258.1665 101.7750 14.68634476 56210
SHIJIAN-6 02A (SJ-6 02A)
1 29505U 06046A   26177.26030323  .00008100  00000+0  41266-3 0  9999
2 29505  97.6360 218.3949 0004666 105.3440 254.8309 15.17041950 73643
SHIJIAN-6 02B (SJ-6 02B)
1 29506U 06046B   26177.34362257  .00001603  00000+0  12875-3 0  9998
2 29506  97.7162 206.3462 0015330  34.6939 325.5282 15.01398321 72116
FGRST (GLAST)           
1 33053U 08029A   26177.19903628  .00002661  00000+0  93285-4 0  9999
2 33053  25.5805 141.9033 0008403  73.9420 286.2043 15.23981164997215
SDO                     
1 36395U 10005A   26177.24254086 -.00000095  00000+0  00000+0 0  9999
2 36395  34.6701  86.2043 0001578  47.1184 126.1758  1.00270715 60153
CRYOSAT 2               
1 36508U 10013A   26177.24788324  .00000118  00000+0  28601-4 0  9998
2 36508  92.0359 279.5040 0002128  94.2382 265.9069 14.51902035859391
X-SAT                   
1 37389U 11015C   26177.28200707  .00000040  00000+0  34352-4 0  9991
2 37389  98.3509 153.8720 0013327 321.1378  38.8843 14.25208473788972
GCOM-W1 (SHIZUKU)       
1 38337U 12025A   26177.31362177  .00000434  00000+0  10634-3 0  9994
2 38337  98.2022 117.7311 0001631  69.7985  46.6876 14.57132412750363
NUSTAR                  
1 38358U 12031A   26177.33335648  .00006238  00000+0  33089-3 0  9996
2 38358   6.0280 325.5473 0008852 249.8647 334.8476 15.08886666  1300
NEOSSAT                 
1 39089U 13009D   26176.99001091  .00000146  00000+0  65205-4 0  9995
2 39089  98.4180 356.8134 0010266 215.0980 144.9530 14.35829358698008
BRITE-AUSTRIA           
1 39091U 13009F   26176.98425795  .00000156  00000+0  67554-4 0  9998
2 39091  98.3998 356.2023 0009569 207.8221 152.2455 14.36545238698314
IRIS                    
1 39197U 13033A   26177.12119358  .00000977  00000+0  11801-3 0  9998
2 39197  97.9327  16.3702 0023048 291.1306  68.7446 14.85901253701704
HISAKI (SPRINT-A)       
1 39253U 13049A   26177.26148518  .00000111  00000+0  65422-4 0  9992
2 39253  29.7171 173.8750 0136855  90.4232 271.2022 13.55545482632650
CASSIOPE                
1 39265U 13055A   26177.21307987  .00049312 -33578-6  53456-3 0  9997
2 39265  80.9146  55.7550 0289304  32.1223 329.7272 15.26023039669049
STSAT-3                 
1 39422U 13066G   26177.23492764  .00003504  00000+0  26599-3 0  9991
2 39422  97.6216 146.9775 0010359  19.9199 340.2429 15.02805146685564
SWARM B                 
1 39451U 13067A   26177.23361935  .00003679  00000+0  13108-3 0  9994
2 39451  87.7439 339.5678 0003056  81.5773 278.5823 15.28603784684623
